     2.100          NAVIGATION                              RINEX VERSION / TYPE
fic2rin                                 05/18/2010 00:32:52 PGM / RUN BY / DATE
                                                            END OF HEADER
 3 10  5 17 12  0  0.0  .556132756174D-03  .511590769747D-11  .000000000000D+00
     .190000000000D+02  .115937500000D+02  .555701718636D-08 -.908776414185D-03
     .625848770142D-06  .130652792286D-01  .805407762527D-05  .515370343399D+04
     .129600000000D+06 -.782310962677D-07 -.167299408098D+01  .216066837311D-06
     .926774787478D+00  .209687500000D+03  .992728597028D+00 -.863393106646D-08
     .608596779070D-09  .100000000000D+01  .158400000000D+04  .000000000000D+00
     .240000000000D+01  .000000000000D+00 -.465661287308D-08  .190000000000D+02
     .122406000000D+06  .400000000000D+01
 4 10  5 17 12  0  0.0  .838139094412D-04  .829913915368D-11  .000000000000D+00
     .420000000000D+02 -.107187500000D+02  .542201156283D-08 -.312099193775D+01
    -.661239027977D-06  .907057919540D-02  .683963298798D-05  .515367992401D+04
     .129600000000D+06 -.800937414169D-07 -.502497495518D+00 -.147148966789D-06
     .939157302071D+00  .237187500000D+03  .606102274067D+00 -.815141096756D-08
    -.344300055765D-09  .100000000000D+01  .158400000000D+04  .000000000000D+00
     .240000000000D+01  .000000000000D+00 -.605359673500D-08  .420000000000D+02
     .122406000000D+06  .400000000000D+01
 6 10  5 17 12  0  0.0  .637215562165D-03 -.112549969344D-10  .000000000000D+00
     .100000000000D+03  .141250000000D+02  .533272212928D-08  .222215209618D+01
     .618398189545D-06  .628662132658D-02  .752508640289D-05  .515365717697D+04
     .129600000000D+06  .763684511185D-07 -.160243182639D+01  .149011611938D-07
     .934091251873D+00  .219437500000D+03 -.106980613575D+01 -.824248618978D-08
     .523236080597D-09  .100000000000D+01  .158400000000D+04  .000000000000D+00
     .340000000000D+01  .000000000000D+00 -.512227416039D-08  .100000000000D+03
     .122406000000D+06  .400000000000D+01
 7 10  5 17 12  0  0.0 -.538304448128D-06 -.341060513165D-12  .000000000000D+00
     .360000000000D+02 -.858125000000D+02  .426303471536D-08 -.151158628432D+01
    -.449270009995D-05  .346989626996D-02  .228360295296D-05  .515371488571D+04
     .129600000000D+06 -.143423676491D-06  .264017233684D+01 -.931322574615D-08
     .971670237988D+00  .342687500000D+03  .303636243115D+01 -.819355558019D-08
    -.177507393895D-09  .100000000000D+01  .158400000000D+04  .000000000000D+00
     .240000000000D+01  .000000000000D+00 -.102445483208D-07  .360000000000D+02
     .122406000000D+06  .400000000000D+01
 8 10  5 17 12  0  0.0  .540912151337D-05  .113686837722D-12  .000000000000D+00
     .770000000000D+02 -.981250000000D+02  .381837333629D-08 -.214904110476D+01
    -.509060919285D-05  .110458041308D-01  .299513339996D-05  .515369220161D+04
     .129600000000D+06 -.150874257088D-06  .270785659122D+01 -.670552253723D-07
     .993081025697D+00  .340531250000D+03  .309932784870D+01 -.794783105907D-08
    -.131076888450D-09  .100000000000D+01  .158400000000D+04  .000000000000D+00
     .240000000000D+01  .000000000000D+00 -.372529029846D-08  .770000000000D+02
     .122406000000D+06  .400000000000D+01
 9 10  5 17 12  0  0.0  .705150887370D-05  .227373675443D-11  .000000000000D+00
     .102000000000D+03 -.750000000000D+02  .394837875154D-08 -.225421717290D+01
    -.370107591152D-05  .170141441049D-01  .170990824699D-05  .515371649170D+04
     .129600000000D+06  .292435288429D-06  .260889634790D+01  .372529029846D-07
     .980755632203D+00  .353625000000D+03  .151414307160D+01 -.780675375406D-08
    -.166078346401D-09  .100000000000D+01  .158400000000D+04  .000000000000D+00
     .485000000000D+01  .000000000000D+00 -.558793544769D-08  .102000000000D+03
     .122406000000D+06  .400000000000D+01
10 10  5 17 12  0  0.0 -.427593477070D-04 -.795807864051D-12  .000000000000D+00
     .102000000000D+03  .748750000000D+02  .456519015849D-08  .171617160777D+01
     .396743416786D-05  .916177197360D-02  .113323330879D-04  .515351002884D+04
     .129600000000D+06 -.257045030594D-06  .564665760230D+00  .540167093277D-07
     .953818988904D+00  .160593750000D+03  .668774847603D+00 -.795318842508D-08
    -.427160650099D-09  .100000000000D+01  .158400000000D+04  .000000000000D+00
     .240000000000D+01  .000000000000D+00 -.279396772385D-08  .102000000000D+03
     .122406000000D+06  .400000000000D+01
11 10  5 17 12  0  0.0 -.631115399301D-04 -.238742359215D-11  .000000000000D+00
     .170000000000D+02 -.103125000000D+02  .666777773971D-08 -.163810576109D+01
    -.584870576859D-06  .106136339018D-01  .517070293427D-05  .515373036003D+04
     .129600000000D+06  .189989805222D-06 -.738406273745D+00 -.726431608200D-07
     .888338447982D+00  .235562500000D+03  .804102334684D+00 -.887894127211D-08
    -.646455498895D-10  .100000000000D+01  .158400000000D+04  .000000000000D+00
     .240000000000D+01  .000000000000D+00 -.116415321827D-07  .170000000000D+02
     .122406000000D+06  .400000000000D+01
12 10  5 17 12  0  0.0 -.114427879453D-03  .420641299570D-11  .000000000000D+00
     .900000000000D+02 -.960937500000D+02  .389801951102D-08 -.153644539816D+01
    -.500120222569D-05  .355034333188D-02  .101346522570D-04  .515369887733D+04
     .129600000000D+06 -.838190317154D-07 -.258978632364D+01  .372529029846D-07
     .970891340904D+00  .191562500000D+03 -.448703679018D+00 -.764960435101D-08
     .329656588663D-09  .100000000000D+01  .158400000000D+04  .000000000000D+00
     .240000000000D+01  .000000000000D+00 -.116415321827D-07  .900000000000D+02
     .122406000000D+06  .400000000000D+01
13 10  5 17 12  0  0.0  .304346904159D-03 -.341060513165D-12  .000000000000D+00
     .380000000000D+02  .103968750000D+03  .385158900557D-08  .972029666720D+00
     .513158738613D-05  .448077730834D-02  .348314642906D-05  .515376084137D+04
     .129600000000D+06 -.260770320892D-07  .165830776738D+01 -.968575477600D-07
     .992686476691D+00  .329875000000D+03  .171150297536D+01 -.803712049261D-08
     .657170230921D-10  .100000000000D+01  .158400000000D+04  .000000000000D+00
     .240000000000D+01  .000000000000D+00 -.107102096081D-07  .380000000000D+02
     .122406000000D+06  .400000000000D+01
14 10  5 17 12  0  0.0  .465563498437D-04  .432009983342D-11  .000000000000D+00
     .680000000000D+02  .923437500000D+02  .399445209925D-08  .811344199034D+00
     .490620732307D-05  .503113598097D-02  .349804759026D-05  .515374377632D+04
     .129600000000D+06 -.614672899246D-07  .163656168470D+01  .614672899246D-07
     .985959432231D+00  .327156250000D+03 -.213187875696D+01 -.811140930133D-08
     .110718897601D-10  .100000000000D+01  .158400000000D+04  .000000000000D+00
     .240000000000D+01  .000000000000D+00 -.884756445885D-08  .680000000000D+02
     .122406000000D+06  .400000000000D+01
15 10  5 17 12  0  0.0 -.271610915661D-03  .579802872380D-11  .000000000000D+00
     .540000000000D+02  .100625000000D+03  .476555564738D-08  .694541647979D+00
     .521540641785D-05  .247326039243D-02  .374950468540D-05  .515375910759D+04
     .129600000000D+06  .130385160446D-07  .157278598462D+01 -.111758708954D-07
     .953586904265D+00  .297625000000D+03 -.169799744292D+00 -.838142054838D-08
     .353586156854D-10  .100000000000D+01  .158400000000D+04  .000000000000D+00
     .240000000000D+01  .000000000000D+00 -.977888703346D-08  .540000000000D+02
     .122406000000D+06  .400000000000D+01
16 10  5 17 12  0  0.0 -.723367556930D-04 -.375166564481D-11  .000000000000D+00
     .780000000000D+02 -.873437500000D+02  .392230623694D-08  .243566206987D+01
    -.450387597084D-05  .595132657327D-02  .106226652861D-04  .515377100182D+04
     .129600000000D+06 -.149011611938D-07 -.257238225496D+01  .596046447754D-07
     .972106784447D+00  .179812500000D+03 -.225568548475D+00 -.764174688086D-08
     .238581366443D-09  .100000000000D+01  .158400000000D+04  .000000000000D+00
     .240000000000D+01  .000000000000D+00 -.977888703346D-08  .780000000000D+02
     .122406000000D+06  .400000000000D+01
17 10  5 17 12  0  0.0  .151256565005D-03  .238742359215D-11  .000000000000D+00
     .600000000000D+02  .625000000000D+00  .479984278986D-08  .124499806735D+01
    -.596046447754D-07  .541467824951D-02  .769086182117D-05  .515359854126D+04
     .129600000000D+06  .186264514923D-08 -.152928847668D+01  .109896063805D-06
     .959755261773D+00  .227750000000D+03 -.250738994539D+01 -.806997900416D-08
     .527521973408D-09  .100000000000D+01  .158400000000D+04  .000000000000D+00
     .240000000000D+01  .000000000000D+00 -.102445483208D-07  .600000000000D+02
     .122406000000D+06  .400000000000D+01
18 10  5 17 12  0  0.0  .687702558935D-04  .238742359215D-11  .000000000000D+00
     .980000000000D+02  .756562500000D+02  .476912722472D-08  .272151419692D+01
     .379420816898D-05  .113313028123D-01  .106804072857D-04  .515369798660D+04
     .129600000000D+06 -.409781932831D-07  .564762845325D+00 -.147148966789D-06
     .937796621485D+00  .159281250000D+03 -.234126607975D+01 -.788139972051D-08
    -.343585740297D-09  .100000000000D+01  .158400000000D+04  .000000000000D+00
     .240000000000D+01  .000000000000D+00 -.107102096081D-07  .980000000000D+02
     .122406000000D+06  .400000000000D+01
19 10  5 17 12  0  0.0 -.355471856892D-04 -.272848410532D-11  .000000000000D+00
     .320000000000D+02  .440625000000D+01  .492949104737D-08  .619367612907D+00
     .260770320892D-06  .649384118151D-02  .707432627678D-05  .515372673798D+04
     .129600000000D+06  .113621354103D-06 -.147420534513D+01  .298023223877D-07
     .957379443314D+00  .241000000000D+03 -.162619989592D+00 -.813855328913D-08
     .500377985609D-09  .100000000000D+01  .158400000000D+04  .000000000000D+00
     .240000000000D+01  .000000000000D+00 -.149011611938D-07  .320000000000D+02
     .122406000000D+06  .400000000000D+01
